{"type": "FeatureCollection", "features": [{"type": "Feature", "properties": {"norad_id": 24946, "name": "IRIDIUM 33", "group": "iridium-33-debris", "lat": -22.636475912172052, "lon": 71.0296893875784, "alt_km": 780.963233822984, "timestamp": "2025-12-02T10:50:47.659626+00:00", "meta": {"OBJECT_NAME": "IRIDIUM 33", "OBJECT_ID": "1997-051C", "EPOCH": "2025-12-02T02:35:04.423776", "MEAN_MOTION": 14.35024333, "ECCENTRICITY": 0.0006025, "INCLINATION": 86.3871, "RA_OF_ASC_NODE": 72.6839, "ARG_OF_PERICENTER": 241.8333, "MEAN_ANOMALY": 118.2255, "EPHEMERIS_TYPE": 0, "CLASSIFICATION_TYPE": "U", "NORAD_CAT_ID": 24946, "ELEMENT_SET_NO": 999, "REV_AT_EPOCH": 47682, "BSTAR": 0.00015072, "MEAN_MOTION_DOT": 4.49e-06, "MEAN_MOTION_DDOT": 0}, "tle": {"line1": "1 24946U 97051C   25336.10769009  .00000449  00000+0  15072-3 0  9992", "line2": "2 24946  86.3871  72.6839 0006025 241.8333 118.2255 14.35024333476821"}}, "geometry": {"type": "Point", "coordinates": [71.0296893875784, -22.636475912172052]}}, {"type": "Feature", "properties": {"norad_id": 33773, "name": "IRIDIUM 33 DEB", "group": "iridium-33-debris", "lat": -9.252014156330253, "lon": 64.36082796454356, "alt_km": 760.1060034189131, "timestamp": "2025-12-02T10:50:47.659690+00:00", "meta": {"OBJECT_NAME": "IRIDIUM 33 DEB", "OBJECT_ID": "1997-051L", "EPOCH": "2025-12-02T04:14:00.458016", "MEAN_MOTION": 14.4321674, "ECCENTRICITY": 0.0011362, "INCLINATION": 86.4014, "RA_OF_ASC_NODE": 65.0649, "ARG_OF_PERICENTER": 179.1254, "MEAN_ANOMALY": 180.9969, "EPHEMERIS_TYPE": 0, "CLASSIFICATION_TYPE": "U", "NORAD_CAT_ID": 33773, "ELEMENT_SET_NO": 999, "REV_AT_EPOCH": 88195, "BSTAR": 0.00040599, "MEAN_MOTION_DOT": 1.385e-05, "MEAN_MOTION_DDOT": 0}, "tle": {"line1": "1 33773U 97051L   25336.17639419  .00001385  00000+0  40599-3 0  9990", "line2": "2 33773  86.4014  65.0649 0011362 179.1254 180.9969 14.43216740881955"}}, "geometry": {"type": "Point", "coordinates": [64.36082796454356, -9.252014156330253]}}, {"type": "Feature", "properties": {"norad_id": 33775, "name": "IRIDIUM 33 DEB", "group": "iridium-33-debris", "lat": 39.46593763928204, "lon": -129.05591707853935, "alt_km": 744.4863882618583, "timestamp": "2025-12-02T10:50:47.659709+00:00", "meta": {"OBJECT_NAME": "IRIDIUM 33 DEB", "OBJECT_ID": "1997-051N", "EPOCH": "2025-12-02T03:42:41.664096", "MEAN_MOTION": 14.41428943, "ECCENTRICITY": 0.0013078, "INCLINATION": 86.3644, "RA_OF_ASC_NODE": 54.0716, "ARG_OF_PERICENTER": 188.4713, "MEAN_ANOMALY": 210.2825, "EPHEMERIS_TYPE": 0, "CLASSIFICATION_TYPE": "U", "NORAD_CAT_ID": 33775, "ELEMENT_SET_NO": 999, "REV_AT_EPOCH": 87988, "BSTAR": 0.00041132, "MEAN_MOTION_DOT": 1.354e-05, "MEAN_MOTION_DDOT": 0}, "tle": {"line1": "1 33775U 97051N   25336.15464889  .00001354  00000+0  41132-3 0  9997", "line2": "2 33775  86.3644  54.0716 0013078 188.4713 210.2825 14.41428943879882"}}, "geometry": {"type": "Point", "coordinates": [-129.05591707853935, 39.46593763928204]}}, {"type": "Feature", "properties": {"norad_id": 33776, "name": "IRIDIUM 33 DEB", "group": "iridium-33-debris", "lat": 50.27853847709045, "lon": -99.24580253594155, "alt_km": 761.0262622374812, "timestamp": "2025-12-02T10:50:47.659723+00:00", "meta": {"OBJECT_NAME": "IRIDIUM 33 DEB", "OBJECT_ID": "1997-051P", "EPOCH": "2025-12-02T01:01:53.566176", "MEAN_MOTION": 14.38200292, "ECCENTRICITY": 0.0013244, "INCLINATION": 86.4034, "RA_OF_ASC_NODE": 85.2674, "ARG_OF_PERICENTER": 227.5906, "MEAN_ANOMALY": 306.0215, "EPHEMERIS_TYPE": 0, "CLASSIFICATION_TYPE": "U", "NORAD_CAT_ID": 33776, "ELEMENT_SET_NO": 999, "REV_AT_EPOCH": 87928, "BSTAR": 0.00037608, "MEAN_MOTION_DOT": 1.162e-05, "MEAN_MOTION_DDOT": 0}, "tle": {"line1": "1 33776U 97051P   25336.04298109  .00001162  00000+0  37608-3 0  9996", "line2": "2 33776  86.4034  85.2674 0013244 227.5906 306.0215 14.38200292879282"}}, "geometry": {"type": "Point", "coordinates": [-99.24580253594155, 50.27853847709045]}}, {"type": "Feature", "properties": {"norad_id": 33777, "name": "IRIDIUM 33 DEB", "group": "iridium-33-debris", "lat": -3.711768187711254, "lon": 39.442405233555775, "alt_km": 709.431327054418, "timestamp": "2025-12-02T10:50:47.659735+00:00", "meta": {"OBJECT_NAME": "IRIDIUM 33 DEB", "OBJECT_ID": "1997-051Q", "EPOCH": "2025-12-02T04:15:48.952224", "MEAN_MOTION": 14.5547946, "ECCENTRICITY": 0.0005214, "INCLINATION": 86.3801, "RA_OF_ASC_NODE": 39.7969, "ARG_OF_PERICENTER": 298.6098, "MEAN_ANOMALY": 61.4585, "EPHEMERIS_TYPE": 0, "CLASSIFICATION_TYPE": "U", "NORAD_CAT_ID": 33777, "ELEMENT_SET_NO": 999, "REV_AT_EPOCH": 88380, "BSTAR": 0.0011304, "MEAN_MOTION_DOT": 4.937e-05, "MEAN_MOTION_DDOT": 0}, "tle": {"line1": "1 33777U 97051Q   25336.17764991  .00004937  00000+0  11304-2 0  9995", "line2": "2 33777  86.3801  39.7969 0005214 298.6098  61.4585 14.55479460883803"}}, "geometry": {"type": "Point", "coordinates": [39.442405233555775, -3.711768187711254]}}, {"type": "Feature", "properties": {"norad_id": 33850, "name": "IRIDIUM 33 DEB", "group": "iridium-33-debris", "lat": 82.84751080862145, "lon": -176.04283315610894, "alt_km": 745.1529946675819, "timestamp": "2025-12-02T10:50:47.659747+00:00", "meta": {"OBJECT_NAME": "IRIDIUM 33 DEB", "OBJECT_ID": "1997-051T", "EPOCH": "2025-12-02T03:59:09.775104", "MEAN_MOTION": 14.42107156, "ECCENTRICITY": 0.0011096, "INCLINATION": 86.3425, "RA_OF_ASC_NODE": 34.7255, "ARG_OF_PERICENTER": 194.4722, "MEAN_ANOMALY": 218.694, "EPHEMERIS_TYPE": 0, "CLASSIFICATION_TYPE": "U", "NORAD_CAT_ID": 33850, "ELEMENT_SET_NO": 999, "REV_AT_EPOCH": 88000, "BSTAR": 0.00051559, "MEAN_MOTION_DOT": 1.715e-05, "MEAN_MOTION_DDOT": 0}, "tle": {"line1": "1 33850U 97051T   25336.16608536  .00001715  00000+0  51559-3 0  9996", "line2": "2 33850  86.3425  34.7255 0011096 194.4722 218.6940 14.42107156880008"}}, "geometry": {"type": "Point", "coordinates": [-176.04283315610894, 82.84751080862145]}}, {"type": "Feature", "properties": {"norad_id": 33853, "name": "IRIDIUM 33 DEB", "group": "iridium-33-debris", "lat": -84.27728352968266, "lon": -49.95338271629475, "alt_km": 755.2857789558484, "timestamp": "2025-12-02T10:50:47.659759+00:00", "meta": {"OBJECT_NAME": "IRIDIUM 33 DEB", "OBJECT_ID": "1997-051W", "EPOCH": "2025-12-02T01:14:36.905856", "MEAN_MOTION": 13.98945927, "ECCENTRICITY": 0.0206855, "INCLINATION": 86.0005, "RA_OF_ASC_NODE": 354.4987, "ARG_OF_PERICENTER": 268.8529, "MEAN_ANOMALY": 151.103, "EPHEMERIS_TYPE": 0, "CLASSIFICATION_TYPE": "U", "NORAD_CAT_ID": 33853, "ELEMENT_SET_NO": 999, "REV_AT_EPOCH": 85196, "BSTAR": 0.0024792, "MEAN_MOTION_DOT": 4.313e-05, "MEAN_MOTION_DDOT": 0}, "tle": {"line1": "1 33853U 97051W   25336.05181604  .00004313  00000+0  24792-2 0  9994", "line2": "2 33853  86.0005 354.4987 0206855 268.8529 151.1030 13.98945927851966"}}, "geometry": {"type": "Point", "coordinates": [-49.95338271629475, -84.27728352968266]}}, {"type": "Feature", "properties": {"norad_id": 33860, "name": "IRIDIUM 33 DEB", "group": "iridium-33-debris", "lat": -0.8983307516698605, "lon": -148.15251138894962, "alt_km": 678.7322176653852, "timestamp": "2025-12-02T10:50:47.659771+00:00", "meta": {"OBJECT_NAME": "IRIDIUM 33 DEB", "OBJECT_ID": "1997-051AD", "EPOCH": "2025-12-02T03:45:02.627424", "MEAN_MOTION": 14.67136419, "ECCENTRICITY": 0.0008731, "INCLINATION": 86.3852, "RA_OF_ASC_NODE": 31.9214, "ARG_OF_PERICENTER": 32.1798, "MEAN_ANOMALY": 27.9774, "EPHEMERIS_TYPE": 0, "CLASSIFICATION_TYPE": "U", "NORAD_CAT_ID": 33860, "ELEMENT_SET_NO": 999, "REV_AT_EPOCH": 88567, "BSTAR": 0.001456, "MEAN_MOTION_DOT": 8.21e-05, "MEAN_MOTION_DDOT": 0}, "tle": {"line1": "1 33860U 97051AD  25336.15628041  .00008210  00000+0  14560-2 0  9996", "line2": "2 33860  86.3852  31.9214 0008731  32.1798  27.9774 14.67136419885675"}}, "geometry": {"type": "Point", "coordinates": [-148.15251138894962, -0.8983307516698605]}}, {"type": "Feature", "properties": {"norad_id": 33862, "name": "IRIDIUM 33 DEB", "group": "iridium-33-debris", "lat": 40.38924096285042, "lon": -140.9958441414914, "alt_km": 629.707665880891, "timestamp": "2025-12-02T10:50:47.659784+00:00", "meta": {"OBJECT_NAME": "IRIDIUM 33 DEB", "OBJECT_ID": "1997-051AF", "EPOCH": "2025-12-02T03:56:54.078720", "MEAN_MOTION": 14.69187749, "ECCENTRICITY": 0.0054043, "INCLINATION": 86.4106, "RA_OF_ASC_NODE": 42.1919, "ARG_OF_PERICENTER": 104.4608, "MEAN_ANOMALY": 315.3783, "EPHEMERIS_TYPE": 0, "CLASSIFICATION_TYPE": "U", "NORAD_CAT_ID": 33862, "ELEMENT_SET_NO": 999, "REV_AT_EPOCH": 88668, "BSTAR": 0.0016056, "MEAN_MOTION_DOT": 9.692e-05, "MEAN_MOTION_DDOT": 0}, "tle": {"line1": "1 33862U 97051AF  25336.16451480  .00009692  00000+0  16056-2 0  9997", "line2": "2 33862  86.4106  42.1919 0054043 104.4608 315.3783 14.69187749886686"}}, "geometry": {"type": "Point", "coordinates": [-140.9958441414914, 40.38924096285042]}}, {"type": "Feature", "properties": {"norad_id": 33866, "name": "IRIDIUM 33 DEB", "group": "iridium-33-debris", "lat": 34.39429949672214, "lon": 99.92683480915743, "alt_km": 882.0140309737199, "timestamp": "2025-12-02T10:50:47.659796+00:00", "meta": {"OBJECT_NAME": "IRIDIUM 33 DEB", "OBJECT_ID": "1997-051AK", "EPOCH": "2025-12-02T02:49:59.253888", "MEAN_MOTION": 14.25211612, "ECCENTRICITY": 0.0113542, "INCLINATION": 86.2997, "RA_OF_ASC_NODE": 97.529, "ARG_OF_PERICENTER": 195.2947, "MEAN_ANOMALY": 287.6732, "EPHEMERIS_TYPE": 0, "CLASSIFICATION_TYPE": "U", "NORAD_CAT_ID": 33866, "ELEMENT_SET_NO": 999, "REV_AT_EPOCH": 86659, "BSTAR": 0.00074119, "MEAN_MOTION_DOT": 1.881e-05, "MEAN_MOTION_DDOT": 0}, "tle": {"line1": "1 33866U 97051AK  25336.11804692  .00001881  00000+0  74119-3 0  9990", "line2": "2 33866  86.2997  97.5290 0113542 195.2947 287.6732 14.25211612866598"}}, "geometry": {"type": "Point", "coordinates": [99.92683480915743, 34.39429949672214]}}]}